IRIDIUM 155             
1 43573U 18061E   25114.91859359 -.00000015  00000+0 -12332-4 0  9992
2 43573  86.3990 231.4109 0001954 102.4308 257.7107 14.34217372353415
IRIDIUM 154             
1 43574U 18061F   25114.89956434  .00000193  00000+0  61866-4 0  9993
2 43574  86.3991 231.5318 0002197  96.2181 263.9265 14.34216908353451
IRIDIUM 163             
1 43575U 18061G   25115.57821115  .00000533  00000+0  18326-3 0  9997
2 43575  86.3989 231.1763 0002060  90.6643 269.4788 14.34223818353526
IRIDIUM 156             
1 43576U 18061H   25115.55284813  .00000456  00000+0  15592-3 0  9990
2 43576  86.3972 231.1905 0003183 118.4873 241.6644 14.34209940353509
IRIDIUM 164             
1 43577U 18061J   25114.83613994 -.00000008  00000+0 -99263-5 0  9991
2 43577  86.3995 231.5281 0002284  98.7659 261.3795 14.34217660353457
IRIDIUM 159             
1 43578U 18061K   25115.57188118  .00000107  00000+0  31056-4 0  9992
2 43578  86.3989 231.1654 0002314  91.6510 268.4951 14.34217833353525
IRIDIUM 180             
1 43922U 19002A   25115.22253405  .00000068  00000+0  17159-4 0  9999
2 43922  86.4009 168.2974 0002220  90.9771 269.1679 14.34218170329123
IRIDIUM 176             
1 43923U 19002B   25114.74979348  .00001611  00000+0  25160-3 0  9992
2 43923  86.6137 168.4929 0001869  88.4561 271.6870 14.72259449337684
IRIDIUM 168             
1 43924U 19002C   25115.21619056  .00000115  00000+0  34108-4 0  9994
2 43924  86.4012 168.3655 0002390  95.6251 264.5218 14.34218170329060
IRIDIUM 173             
1 43925U 19002D   25115.20350571  .00000166  00000+0  52266-4 0  9999
2 43925  86.4010 168.2771 0002079  91.9588 268.1846 14.34218723329053
IRIDIUM 169             
1 43926U 19002E   25114.80472520  .00000489  00000+0  15337-3 0  9999
2 43926  86.4288 200.0073 0001078 131.4389 228.6902 14.38608595330070
IRIDIUM 172             
1 43927U 19002F   25115.54600702  .00000118  00000+0  35140-4 0  9991
2 43927  86.4010 168.1406 0002403  87.2505 272.8966 14.34218055329106
IRIDIUM 175             
1 43928U 19002G   25115.08448854  .00000567  00000+0  85940-4 0  9990
2 43928  86.1473 123.9010 0002392 114.6009 245.5456 14.72246309337721
IRIDIUM 171             
1 43929U 19002H   25114.75952328  .00000172  00000+0  54526-4 0  9998
2 43929  86.4022 168.7286 0002527 100.1967 259.9514 14.34216287328982
IRIDIUM 170             
1 43930U 19002J   25115.43565050  .00001430  00000+0  22297-3 0  9995
2 43930  86.6141 168.2120 0002159 101.2326 258.9133 14.72247566337793
IRIDIUM 167             
1 43931U 19002K   25115.52063470  .00000105  00000+0  30555-4 0  9990
2 43931  86.4011 168.1700 0002357 106.2436 253.9019 14.34218110329091
IRIDIUM 181             
1 56726U 23068S   25115.39687686  .00000757  00000+0  21881-3 0  9993
2 56726  86.4529 231.2638 0002787 100.7522 259.3993 14.43309383102177
IRIDIUM 177             
1 56727U 23068T   25115.54465690  .00002159  00000+0  28060-3 0  9994
2 56727  86.2004 167.1072 0002533  98.7863 261.3644 14.80228266104580
IRIDIUM 174             
1 56728U 23068U   25115.42959681  .00001696  00000+0  26239-3 0  9991
2 56728  86.6139 168.3261 0002039  98.2780 261.8668 14.72697873104554
IRIDIUM 178             
1 56729U 23068V   25115.19573793  .00002507  00000+0  32660-3 0  9999
2 56729  86.6611 199.9317 0002506  90.9164 269.2345 14.80226166104530
IRIDIUM 179             
1 56730U 23068W   25114.71715257  .00002956  00000+0  38548-3 0  9990
2 56730  86.6842 207.8403 0002152 102.0134 258.1329 14.80241971104464
